CFFcropid,INSTCODE,ACCENUMB,COLLNUMB,COLLCODE,COLLNAME,COLLINSTADDRESS,COLLMISSID,GENUS,SPECIES,SPAUTHOR,SUBTAXA,SUBTAUTHOR,CROPNAME,ACCENAME,ACQDATE,ORIGCTY,COLLSITE,lat,lon,COORDUNCERT,COORDDATUM,GEOREFMETH,ELEVATION,COLLDATE,BREDCODE,BREDNAME,SAMPSTAT,ANCEST,COLLSRC,DONORCODE,DONORNAME,DONORNUMB,OTHERNUMB,DUPLSITE,DUPLINSTNAME,STORAGE,MLSSTAT,UUID,HISTORIC,ACCEURL,REMARKS
10001000051,NGA039,TDa-3699,PS92-Co-143,,Padulosi S.,,,Dioscorea,alata,,,,yam,,,COG,,-3.266666667,15.91666667,,,,,19920106,,,300,,,,,,,,,13;30,,60a198f7-b6f3-40bc-804a-24fa6dec58dd,,http://my.iita.org/accession2/accession/TDa-3699,
10001000051,NGA039,TDa-1372,AG88-335,,,,,Dioscorea,alata,,,,yam,,,COG,,-2.539878,14.755011,,,,,19880101,,,300,,,,,,,,,13;30,,657d0c4d-9bab-4ff6-a2f9-28f4236a47ba,,http://my.iita.org/accession2/accession/TDa-1372,
10001000051,NGA039,TDa-3701,PS92-Co-153,,Padulosi S.,,,Dioscorea,alata,,,,yam,,,COG,,-2.433333333,14.86666667,,,,622,19920106,,,300,,,,,,,,,13;30,,bf988585-a3d5-4b78-a784-388f56c9051c,,http://my.iita.org/accession2/accession/TDa-3701,
10001000051,NGA039,TDa-1360,AG88-351,,,,,Dioscorea,alata,,,,yam,,,COG,,-2.033333333,15.93333333,,,,319,19880101,,,300,,,,,,,,,13;30,,a219a6b9-1b7e-4899-b057-b33e666a71c6,,http://my.iita.org/accession2/accession/TDa-1360,
10001000051,NGA039,TDa-3703,PS92-Co-99,,Padulosi S.,,,Dioscorea,alata,,,,yam,,,COG,,-1.95,16.06666667,,,,333,19920106,,,300,,,,,,,,,13;30,,702e8440-562d-4f13-9b76-86c3e55dc281,,http://my.iita.org/accession2/accession/TDa-3703,
10001000051,NGA039,TDa-3120,PS-89 - 47,,,,,Dioscorea,alata,,,,yam,,,GAB,,-1.8667001,13.5833,,,,14,19890101,,,300,,,,,,,,,13;30,,bf54f3e4-18e0-42d0-aa8e-d240f0f62ccf,,http://my.iita.org/accession2/accession/TDa-3120,
10001000051,NGA039,TDa-3125,PS-89 - 168,,padulosi S.,,,Dioscorea,alata,,,,yam,,,GAB,,-1.6332999,14.2667,,,,502,19890101,,,300,,,,,,,,,13;30,,7750ae63-549e-41bf-9f8f-cdfa61eefb4a,,http://my.iita.org/accession2/accession/TDa-3125,
10001000051,NGA039,TDa-1355,AG88-358,,,,,Dioscorea,alata,,,,yam,,,COG,,-1.566666667,15.35,,,,537,19880101,,,300,,,,,,,,,13;30,,eb6bbdb3-e698-47ad-a754-f8921dba28e5,,http://my.iita.org/accession2/accession/TDa-1355,
10001000051,NGA039,TDa-1371,AG88-359,,,,,Dioscorea,alata,,,,yam,,,COG,,-1.566666667,15.35,,,,537,19880101,,,300,,,,,,,,,13;30,,a5eeb981-2146-4288-8e96-3709982c9b4c,,http://my.iita.org/accession2/accession/TDa-1371,
10001000051,NGA039,TDa-3127,PS-89 - 174,,,,,Dioscorea,alata,,,,yam,,,GAB,,-1.5333,14.2667,,,,502,19890101,,,300,,,,,,,,,13;30,,952bf627-b317-449a-bf31-4f46680bca21,,http://my.iita.org/accession2/accession/TDa-3127,
10001000051,NGA039,TDa-1313,PS-89 - 168,,,,,Dioscorea,alata,,,,yam,,,GAB,,-1.38,14.16,,,,502,,,,300,,,,,,,,,13;30,,97cbd7b5-74aa-47c9-ad3e-fbb7de52af17,,http://my.iita.org/accession2/accession/TDa-1313,
10001000051,NGA039,TDa-1366,AG88-368,,,,,Dioscorea,alata,,,,yam,,,COG,,-1.266666667,14.91666667,,,,441,19880101,,,300,,,,,,,,,13;30,,0ab6d55a-2431-4408-9c02-2d7d49d3b3ec,,http://my.iita.org/accession2/accession/TDa-1366,
10001000051,NGA039,TDa-4200,5 4,,,,,Dioscorea,alata,,,,yam,,,,Randomu,2,10,,,,,,,,300,,,,,,,,,13;30,,80c189da-0589-4550-9357-af237d03dfc0,,http://my.iita.org/accession2/accession/TDa-4200,
10001000051,NGA039,TDa-3128,EQ-89 - 23,,,,,Dioscorea,alata,,,,yam,,,GNQ,,3.3333001,8.6667004,,,,1020,19890101,,,300,,,,,,,,,13;30,,73d4422d-4053-43e5-ad97-9c5faf2418f8,,http://my.iita.org/accession2/accession/TDa-3128,
10001000051,NGA039,TDa-4041,,,,,,Dioscorea,alata,,,,yam,,,NGA,"BORI, BORI LGA, RIVERS STATE",4.699215,7.430763,,,,23,,,,300,,,,,,,,,13;30,,31deee5d-5a3f-4fb6-9100-b6f19cce3546,,http://my.iita.org/accession2/accession/TDa-4041,
10001000051,NGA039,TDa-4113,BF-98-31,,,,,Dioscorea,alata,,,,yam,,,BFA,Uoutori,5.431944444,7.855277778,,,,,,,,300,,,,,,,,,13;30,,ca32467d-4465-4152-97a7-1115a4cbfeba,,http://my.iita.org/accession2/accession/TDa-4113,
10001000051,NGA039,TDa-4195,2 31,,,,,Dioscorea,alata,,,,yam,,,,Atchave,6.1608,1.2381,,,,65,,,,300,,,,,,,,,13;30,,bcd7cb79-22e6-4b83-9aab-eb05382fb4a7,,http://my.iita.org/accession2/accession/TDa-4195,
10001000051,NGA039,TDa-3836,98-001,,,,,Dioscorea,alata,,,,yam,,,NGA,"Asaba, Delta State",6.183333,6.75,,,,57,19980101,,,999,,,,,,,,,13;30,,99f4752c-98c9-4757-a385-45e2768a0fc5,,http://my.iita.org/accession2/accession/TDa-3836,
10001000051,NGA039,TDa-1463,SO/89/080,,,,,Dioscorea,alata,,,,yam,,,GHA,,6.19,0.24,,,,25,19890101,,,300,,,,,,,,,13;30,,acc64a43-4c81-4ae8-9426-b24c18590d04,,http://my.iita.org/accession2/accession/TDa-1463,
10001000051,NGA039,TDa-3838,98-003,,,,,Dioscorea,alata,,,,yam,,,NGA,ASABA DELTA STATE,6.1978136,6.7317008,,,,57,19980101,,,300,,,,,,,,,13;30,,8494a4d2-1e42-457e-89f1-311ece4f7faa,,http://my.iita.org/accession2/accession/TDa-3838,
10001000051,NGA039,TDa-4194,1 86,,,,,Dioscorea,alata,,,,yam,,,,Nyive,6.2865,7.3975,,,,252,,,,300,,,,,,,,,13;30,,c836726d-0a2f-4575-bec6-2498ea03a601,,http://my.iita.org/accession2/accession/TDa-4194,
10001000051,NGA039,TDa-1306,SO/89/097,,,,,Dioscorea,alata,,,,yam,,,GHA,,6.3167,0.43329999,,,,0,19890101,,,999,,,,,,,,,13;30,,65cbc269-2951-4053-8738-0d523fd53256,,http://my.iita.org/accession2/accession/TDa-1306,
10001000051,NGA039,TDa-1434,SO/89/079,,,,,Dioscorea,alata,,,,yam,,,GHA,,6.3167,-0.40000001,,,,25,19890101,,,300,,,,,,,,,13;30,,c1da8b63-f87f-4a5f-80a2-04276a5e577f,,http://my.iita.org/accession2/accession/TDa-1434,
10001000051,NGA039,TDa-1437,SO/89/087,,,,,Dioscorea,alata,,,,yam,,,GHA,,6.3167,-0.40000001,,,,252,19890101,,,300,,,,,,,,,13;30,,6f8f96fc-367f-48c1-a8df-79ecf453ef64,,http://my.iita.org/accession2/accession/TDa-1437,
10001000051,NGA039,TDa-1439,SO/89/097A,,,,,Dioscorea,alata,,,,yam,,,GHA,,6.3167,-0.40000001,,,,25,19890101,,,300,,,,,,,,,13;30,,f4dce68c-9997-4aca-8d34-7c00f8b1bfc3,,http://my.iita.org/accession2/accession/TDa-1439,
10001000051,NGA039,TDa-2833,SO/89/120,,,,,Dioscorea,alata,,,,yam,,,GHA,,6.3167,0.38330001,,,,0,19890101,,,300,,,,,,,,,13;30,,69c95828-637c-4f3e-a753-2353158c0b59,,http://my.iita.org/accession2/accession/TDa-2833,
10001000051,NGA039,TDa-2838,SO/89/087,,,,,Dioscorea,alata,,,,yam,,,GHA,,6.3167,-0.40000001,,,,252,19890101,,,300,,,,,,,,,13;30,,131e44e6-984b-4640-b8e8-9a52d4ead8e1,,http://my.iita.org/accession2/accession/TDa-2838,
10001000051,NGA039,TDa-2846,SO/89/079,,,,,Dioscorea,alata,,,,yam,,,GHA,,6.3167,0.40000001,,,,25,19890101,,,300,,,,,,,,,13;30,,79d56e93-5fa9-4021-9da1-3a5ce797db98,,http://my.iita.org/accession2/accession/TDa-2846,
10001000051,NGA039,TDa-3265,,,,,,Dioscorea,alata,,,,yam,,,GHA,,6.3167,-2.5999999,,,,,,,,300,,,,,,,,,13;30,,94053fb9-f96f-41f9-ab66-843305e54503,,http://my.iita.org/accession2/accession/TDa-3265,
10001000051,NGA039,TDa-3268,SO/89/081,,,,,Dioscorea,alata,,,,yam,,,GHA,,6.3167,-0.40000001,,,,25,19890101,,,300,,,,,,,,,13;30,,b3308bce-c1e3-4cd5-80aa-8a49ece67fd5,,http://my.iita.org/accession2/accession/TDa-3268,
10001000051,NGA039,TDa-3271,SO/89/097,,,,,Dioscorea,alata,,,,yam,,,GHA,,6.3167,0.40000001,,,,252,19890101,,,300,,,,,,,,,13;30,,bf5d5da1-849f-44aa-bf55-c1166cb5e203,,http://my.iita.org/accession2/accession/TDa-3271,
10001000051,NGA039,TDa-3837,98-002,,,,,Dioscorea,alata,,,,yam,,,NGA,AKWUKURU,6.35,6.5833,,,,151,19980101,,,300,,,,,,,,,13;30,,8eb6d73e-9743-4d41-8fca-f46d65de42a0,,http://my.iita.org/accession2/accession/TDa-3837,
10001000051,NGA039,TDa-3905,RB-89-679,,,,,Dioscorea,alata,,,,yam,,,BEN,ATLANTIQUE,6.39,2.03,,,,78,,,,300,,,,,,,,,13;30,,39863ea4-a74e-43ad-bfba-0abfcab3482c,,http://my.iita.org/accession2/accession/TDa-3905,
10001000051,NGA039,TDa-1304,SO/89/075,,,,,Dioscorea,alata,,,,yam,,,GHA,,6.4166999,-0.56669998,,,,-1,19890101,,,999,,,,,,,,,13;30,,33676872-e8d2-483f-9ff7-9529cd3961dd,,http://my.iita.org/accession2/accession/TDa-1304,
10001000051,NGA039,TDa-1427,SO/89/066,,,,,Dioscorea,alata,,,,yam,,,GHA,,6.4166999,-0.56669998,,,,-1,19890101,,,300,,,,,,,,,13;30,,d1ed7a0e-e813-40c3-8441-1cd23d9746f5,,http://my.iita.org/accession2/accession/TDa-1427,
10001000051,NGA039,TDa-1428,SO/89/071,,,,,Dioscorea,alata,,,,yam,,,GHA,,6.4166999,-0.56669998,,,,-1,19890101,,,300,,,,,,,,,13;30,,b835ae2c-dcbf-40e7-a656-5b3d76089e4b,,http://my.iita.org/accession2/accession/TDa-1428,
10001000051,NGA039,TDa-2840,SO/89/066,,,,,Dioscorea,alata,,,,yam,,,GHA,,6.4166999,-0.56669998,,,,-1,19890101,,,300,,,,,,,,,13;30,,8c67b0c3-bcf6-4dcc-8a3b-a5aa93f8e177,,http://my.iita.org/accession2/accession/TDa-2840,
10001000051,NGA039,TDa-2843,SO/89/071,,,,,Dioscorea,alata,,,,yam,,,GHA,,6.4166999,-0.56669998,,,,-1,19890101,,,300,,,,,,,,,13;30,,49d1ec8a-b344-4eda-a70b-93d4fc3741b8,,http://my.iita.org/accession2/accession/TDa-2843,
10001000051,NGA039,TDa-3267,SO/89/075,,,,,Dioscorea,alata,,,,yam,,,GHA,,6.4166999,0.56669998,,,,1,19890101,,,300,,,,,,,,,13;30,,2f6e0fa0-19bc-46f3-a0fe-303574ae02d0,,http://my.iita.org/accession2/accession/TDa-3267,
10001000051,NGA039,TDa-3269,SO/89/077,,,,,Dioscorea,alata,,,,yam,,,GHA,,6.4166999,-0.56669998,,,,-1,19890101,,,300,,,,,,,,,13;30,,0c6ba374-d06d-4962-957b-7c0408465b02,,http://my.iita.org/accession2/accession/TDa-3269,
10001000051,NGA039,TDa-3798,RB-89-579,,,,,Dioscorea,alata,,,,yam,,,BEN,ATLANTIQUE (225m),6.44,2.08,,,,87,19890101,,,300,,,,,,,,,13;30,,22b88008-48ad-435a-909c-bc7accb4cc5d,,http://my.iita.org/accession2/accession/TDa-3798,
10001000051,NGA039,TDa-1466,SO/89/065,,,,,Dioscorea,alata,,,,yam,,,GHA,,6.5046,0.6919,,,,,19890101,,,300,,,,,,,,,13;30,,41cd4698-ec1f-4250-aaed-0274ff5e4060,,http://my.iita.org/accession2/accession/TDa-1466,
10001000051,NGA039,TDa-1423,SO/89/022,,,,,Dioscorea,alata,,,,yam,,,GHA,,6.5332999,0.2333,,,,0,19890101,,,300,,,,,,,,,13;30,,bd28e3ab-fdab-4529-82ec-f44e3f49a226,,http://my.iita.org/accession2/accession/TDa-1423,
10001000051,NGA039,TDa-2839,SO/89/023,,,,,Dioscorea,alata,,,,yam,,,GHA,,6.5332999,0.2333,,,,0,19890101,,,300,,,,,,,,,13;30,,df0cbcb7-31c0-4e98-8d2c-fd73371bda16,,http://my.iita.org/accession2/accession/TDa-2839,
10001000051,NGA039,TDa-2848,SO/89/022,,,,,Dioscorea,alata,,,,yam,,,GHA,,6.5332999,0.2333,,,,0,19890101,,,300,,,,,,,,,13;30,,b9dd87ab-e023-41c4-bc23-d8d66dbeadaf,,http://my.iita.org/accession2/accession/TDa-2848,
10001000051,NGA039,TDa-4048,IN94A-63,,,,,Dioscorea,alata,,,,yam,,,BEN,"KUNBI, AKINYELE LGA, OYO STATE",6.65,-0.6667,,,,375,,,,300,,,,,,,,,13;30,,07062105-83e7-4d42-b154-ac5df8a42fc6,,http://my.iita.org/accession2/accession/TDa-4048,
10001000051,NGA039,TDa-1449,SO/89/112,,,,,Dioscorea,alata,,,,yam,,,GHA,,6.6500001,-0.46669999,,,,230,19890101,,,300,,,,,,,,,13;30,,15633e1a-bb11-4600-8977-a9331245d00f,,http://my.iita.org/accession2/accession/TDa-1449,
10001000051,NGA039,TDa-4057,95-92,,,,,Dioscorea,alata,,,,yam,,,NGA,"TRIP, INGHOLO VIA UBIAJA",6.65504,6.38687,,,,280,19950101,,,300,,,,,,,,,13;30,,90566710-207f-4ebf-a51e-8ff11c452ad9,,http://my.iita.org/accession2/accession/TDa-4057,
10001000051,NGA039,TDa-1307,SO/89/111,,,,,Dioscorea,alata,,,,yam,,,GHA,,6.6666999,-0.699,,,,485,19890101,,,999,,,,,,,,,13;30,,6b99331a-450e-4584-ab61-dc6a0c44476e,,http://my.iita.org/accession2/accession/TDa-1307,
10001000051,NGA039,TDa-3272,SO/89/111,,,,,Dioscorea,alata,,,,yam,,,GHA,,6.6666999,-0.699,,,,485,19890101,,,300,,,,,,,,,13;30,,5e294b7a-df71-4af7-b926-518139466ec6,,http://my.iita.org/accession2/accession/TDa-3272,
10001000051,NGA039,TDa-3926,RB89-686,,,,,Dioscorea,alata,,,,yam,,,BEN,AIZO,6.6700001,2.02,,,,2,,,,300,,,,,,,,,13;30,,fe607699-6e51-48cc-8bba-3a29f4e9bbd3,,http://my.iita.org/accession2/accession/TDa-3926,
10001000051,NGA039,TDa-3930,89-7,,,,,Dioscorea,alata,,,,yam,,,BEN,NIAOLI,6.73,2.1300001,,,,87,,,,300,,,,,,,,,13;30,,a63bcd8a-5215-4820-87cc-813aa4054d15,,http://my.iita.org/accession2/accession/TDa-3930,
10001000051,NGA039,TDa-3944,IN94R-148,,,,,Dioscorea,alata,,,,yam,,,BEN,ODEME,6.73,2.6500001,,,,3,,,,300,,,,,,,,,13;30,,76dbd0cd-ac6d-4d38-b792-ad7069961e2b,,http://my.iita.org/accession2/accession/TDa-3944,
10001000051,NGA039,TDa-1303,SO/89/009,,,,,Dioscorea,alata,,,,yam,,,GHA,,6.8499999,0.31670001,,,,252,19890101,,,999,,,,,,,,,13;30,,f1953a85-5fbc-4541-97e0-4892fa434309,,http://my.iita.org/accession2/accession/TDa-1303,
10001000051,NGA039,TDa-3266,SO/89/009,,,,,Dioscorea,alata,,,,yam,,,GHA,,6.8499999,0.31670001,,,,137,19890101,,,300,,,,,,,,,13;30,,2be54519-6807-48b9-bc8d-7240e5c279fd,,http://my.iita.org/accession2/accession/TDa-3266,
10001000051,NGA039,TDa-1297,SO/89/100,,,,,Dioscorea,alata,,,,yam,,,GHA,,6.8832998,-0.46669999,,,,252,19890101,,,999,,,,,,,,,13;30,,c0fa994e-6ccc-45a9-8436-ac3a92b43f24,,http://my.iita.org/accession2/accession/TDa-1297,
10001000051,NGA039,TDa-1440,SO/89/103,,,,,Dioscorea,alata,,,,yam,,,GHA,,6.8832998,-0.46669999,,,,252,19890101,,,300,,,,,,,,,13;30,,3a996c73-c2b6-4d03-a978-044ced8957c5,,http://my.iita.org/accession2/accession/TDa-1440,
10001000051,NGA039,TDa-2832,SO/89/103,,,,,Dioscorea,alata,,,,yam,,,GHA,,6.8832998,-0.46669999,,,,252,19890101,,,300,,,,,,,,,13;30,,bdd78c4a-c55a-457d-b363-8283b6ebe78a,,http://my.iita.org/accession2/accession/TDa-2832,
10001000051,NGA039,TDa-2844,SO/89/100,,,,,Dioscorea,alata,,,,yam,,,GHA,,6.8832998,-0.46669999,,,,252,19890101,,,300,,,,,,,,,13;30,,d7847863-22af-4241-b386-f3faf0c5b631,,http://my.iita.org/accession2/accession/TDa-2844,
10001000051,NGA039,TDa-3932,RB-89-542,,,,,Dioscorea,alata,,,,yam,,,BEN,NOUO,6.933333333,1.883333333,,,,252,,,,300,,,,,,,,,13;30,,cfc9d071-41d4-4700-9c37-8a368957700f,,http://my.iita.org/accession2/accession/TDa-3932,
10001000051,NGA039,TDa-3933,RB-89-543,,,,,Dioscorea,alata,,,,yam,,,BEN,NOUO,6.933333333,1.883333333,,,,252,,,,300,,,,,,,,,13;30,,fa15819c-eee0-4bd5-9e6b-aca639d463fd,,http://my.iita.org/accession2/accession/TDa-3933,
10001000051,NGA039,TDa-1305,SO/89/035,,,,,Dioscorea,alata,,,,yam,,,GHA,,6.9833002,0.30000001,,,,81,19890101,,,999,,,,,,,,,13;30,,95ec2d84-e978-48f3-9db5-134d0d39b53b,,http://my.iita.org/accession2/accession/TDa-1305,
10001000051,NGA039,TDa-3270,SO/89/035,,,,,Dioscorea,alata,,,,yam,,,GHA,,6.9833002,0.30000001,,,,0,19890101,,,300,,,,,,,,,13;30,,5f008af8-ec21-41f3-b47b-2dfc2b7ef78c,,http://my.iita.org/accession2/accession/TDa-3270,
10001000051,NGA039,TDa-3934,RB-89-613,,,,,Dioscorea,alata,,,,yam,,,BEN,OWEWE,7.02,2.39,,,,112,,,,300,,,,,,,,,13;30,,7cdacdb0-531a-4cb0-b39a-d3ba039de4cf,,http://my.iita.org/accession2/accession/TDa-3934,
10001000051,NGA039,TDa-1314,IF/89/056,,,,,Dioscorea,alata,,,,yam,,,GHA,,7.0833001,-2.0667,,,,299,19890101,,,300,,,,,,,,,13;30,,b464e9f3-9629-4fb9-835a-ece1a23b6b82,,http://my.iita.org/accession2/accession/TDa-1314,
10001000051,NGA039,TDa-1471,IF/89/050,,,,,Dioscorea,alata,,,,yam,,,GHA,,7.0833001,-2.0667,,,,299,19890101,,,300,,,,,,,,,13;30,,11657e21-9495-44e6-9413-468b2e7c4382,,http://my.iita.org/accession2/accession/TDa-1471,
10001000051,NGA039,TDa-2834,IF/89/053,,,,,Dioscorea,alata,,,,yam,,,GHA,,7.0833001,-2.0667,,,,299,19890101,,,300,,,,,,,,,13;30,,9bd8de78-5c02-4894-8e57-43c1ac6a1740,,http://my.iita.org/accession2/accession/TDa-2834,
10001000051,NGA039,TDa-3275,IF/89/054,,,,,Dioscorea,alata,,,,yam,,,GHA,,7.0833001,-2.0667,,,,299,19890101,,,300,,,,,,,,,13;30,,b3bf7c6c-bfaa-49b3-9259-1f44add69abe,,http://my.iita.org/accession2/accession/TDa-3275,
10001000051,NGA039,TDa-3278,IF/89/056,,,,,Dioscorea,alata,,,,yam,,,GHA,,7.0833001,-2.0667,,,,299,19890101,,,300,,,,,,,,,13;30,,25d1c86e-1f1e-4c79-b429-8f574f67385d,,http://my.iita.org/accession2/accession/TDa-3278,
10001000051,NGA039,TDa-4129,B015Y,,,,,Dioscorea,alata,,,,yam,,,SLE,Geima,7.22,-11.35,,,,252,,,,300,,,,,,,,,13;30,,6ee79100-8801-422c-a6e1-f6028296ebdb,,http://my.iita.org/accession2/accession/TDa-4129,
10001000051,NGA039,TDa-4130,B016Y,,,,,Dioscorea,alata,,,,yam,,,SLE,Geima,7.22,-11.35,,,,252,,,,300,,,,,,,,,13;30,,b76142e2-bf9f-4384-a11f-87bb8087be26,,http://my.iita.org/accession2/accession/TDa-4130,
10001000051,NGA039,TDa-4139,B014Y,,,,,Dioscorea,alata,,,,yam,,,SLE,Geima,7.22,-11.35,,,,252,,,,300,,,,,,,,,13;30,,51c41c45-95d0-49f4-b466-dc9a4c4e1c3a,,http://my.iita.org/accession2/accession/TDa-4139,
10001000051,NGA039,TDa-1403,KE-10,,,,,Dioscorea,alata,,,,yam,,,NGA,,7.23,5.3,,,,330,,,,300,,,,,,,,,13;30,,c8e6d3b0-3d82-476c-8342-3c965703950a,,http://my.iita.org/accession2/accession/TDa-1403,
10001000051,NGA039,TDa-4058,96-8,,,,,Dioscorea,alata,,,,yam,,,NGA,"TRIP, ODEDA, OGUN STATE",7.2333,3.5333,,,,152,19960101,,,300,,,,,,,,,13;30,,70394851-d458-409b-85b7-e5db62fb632c,,http://my.iita.org/accession2/accession/TDa-4058,
10001000051,NGA039,TDa-1310,IF/89/038,,,,,Dioscorea,alata,,,,yam,,,GHA,,7.3167,-2.6833,,,,-3,19890101,,,999,,,,,,,,,13;30,,f8e236de-df3e-4fe5-9244-12c7ed17feb4,,http://my.iita.org/accession2/accession/TDa-1310,
10001000051,NGA039,TDa-1361,IF/89/040,,,,,Dioscorea,alata,,,,yam,,,GHA,,7.3167,-2.6833,,,,-3,19890101,,,300,,,,,,,,,13;30,,82667cb5-f97b-438c-bf0d-8eaed0fa5b27,,http://my.iita.org/accession2/accession/TDa-1361,
10001000051,NGA039,TDa-1367,IF/89/038,,,,,Dioscorea,alata,,,,yam,,,GHA,,7.3167,-2.6833,,,,-3,19890101,,,300,,,,,,,,,13;30,,2786ff24-a258-4bc1-a028-071e167affae,,http://my.iita.org/accession2/accession/TDa-1367,
10001000051,NGA039,TDa-1421,IF/89/042,,,,,Dioscorea,alata,,,,yam,,,GHA,,7.3167,-2.6833,,,,-3,19890101,,,300,,,,,,,,,13;30,,abd86f3d-55cd-4534-80b4-cdabadc41332,,http://my.iita.org/accession2/accession/TDa-1421,
10001000051,NGA039,TDa-1443,IF/89/040,,,,,Dioscorea,alata,,,,yam,,,GHA,,7.3167,-2.6833,,,,-3,19890101,,,300,,,,,,,,,13;30,,639b9539-0004-4b0b-ac9a-1ef9c1a4fc17,,http://my.iita.org/accession2/accession/TDa-1443,
10001000051,NGA039,TDa-3273,IF/89/038,,,,,Dioscorea,alata,,,,yam,,,GHA,,7.3167,-2.6833,,,,-3,19890101,,,300,,,,,,,,,13;30,,f84c943c-0c4c-43b4-8790-0c8e74d0424e,,http://my.iita.org/accession2/accession/TDa-3273,
10001000051,NGA039,TDa-3274,IF/89/041,,,,,Dioscorea,alata,,,,yam,,,GHA,,7.3167,-2.6833,,,,-3,19890101,,,300,,,,,,,,,13;30,,f9af9a1a-7c3b-4c91-844e-b6c8347473a6,,http://my.iita.org/accession2/accession/TDa-3274,
10001000051,NGA039,TDa-3276,IF/89/042,,,,,Dioscorea,alata,,,,yam,,,GHA,,7.3167,-2.6833,,,,-3,19890101,,,300,,,,,,,,,13;30,,0bc17244-16f0-4782-a2bc-5d2ea2c48f65,,http://my.iita.org/accession2/accession/TDa-3276,
10001000051,NGA039,TDa-4052,95-23,,,,,Dioscorea,alata,,,,yam,,,GHA,"PRANG. B, TRIP",7.35806,-11.72083,,,,252,19950101,,,300,,,,,,,,,13;30,,5f37d173-9dd9-4673-9cd8-29661767b1c1,,http://my.iita.org/accession2/accession/TDa-4052,
10001000051,NGA039,TDa-4133,P003Y,,,,,Dioscorea,alata,,,,yam,,,SLE,Pujehun,7.35806,-11.72083,,,,26,,,,300,,,,,,,,,13;30,,6234a33c-ce97-4293-895a-bed0ffe99c58,,http://my.iita.org/accession2/accession/TDa-4133,
10001000051,NGA039,TDa-4049,IN94A-84,,,,,Dioscorea,alata,,,,yam,,,BEN,"AJIBODE, AKINYELE LGA, OYO STATE",7.4708848,3.9018433,,,,252,,,,300,,,,,,,,,13;30,,b1ef2196-450b-455a-8136-96fe5ff6b937,,http://my.iita.org/accession2/accession/TDa-4049,
10001000051,NGA039,TDa-4055,95-290,,,,,Dioscorea,alata,,,,yam,,,BEN,"SOKKA, TRIP",7.5014243,3.9099205,,,,252,19950101,,,300,,,,,,,,,13;30,,a6e23647-8284-48e8-92cd-54c39735f1a7,,http://my.iita.org/accession2/accession/TDa-4055,
10001000051,NGA039,TDa-4060,BC12/0002,,,,,Dioscorea,alata,,,,yam,,,NGA,BIOTECH/TRIP,7.5014243,3.9099205,,,,252,,,,300,,,,,,,,,13;30,,a3ae9a14-329f-49eb-9f1b-d821530a45df,,http://my.iita.org/accession2/accession/TDa-4060,
10001000051,NGA039,TDa-4061,BC12/0010,,,,,Dioscorea,alata,,,,yam,,,NGA,BIOTECH/TRIP,7.5014243,3.9099205,,,,252,,,,300,,,,,,,,,13;30,,d09bb39f-2aa8-4658-847c-736c54f836f5,,http://my.iita.org/accession2/accession/TDa-4061,
10001000051,NGA039,TDa-4062,BC12/0031,,,,,Dioscorea,alata,,,,yam,,,NGA,BIOTECH/TRIP,7.5014243,3.9099205,,,,252,,,,300,,,,,,,,,13;30,,eb039792-7454-4d09-bd5d-c54be0ca9e33,,http://my.iita.org/accession2/accession/TDa-4062,
10001000051,NGA039,TDa-4063,95-22,,,,,Dioscorea,alata,,,,yam,,,GHA,TRIP,7.5014243,3.9099205,,,,252,19950101,,,300,,,,,,,,,13;30,,0facb33d-fe6b-42d2-8f91-99650141c041,,http://my.iita.org/accession2/accession/TDa-4063,
10001000051,NGA039,TDa-4124,B002Y,,,,,Dioscorea,alata,,,,yam,,,SLE,Bonth,7.53,-12.51,,,,9,,,,300,,,,,,,,,13;30,,b6910b1b-feb0-440a-87ab-eff621e27f4c,,http://my.iita.org/accession2/accession/TDa-4124,
10001000051,NGA039,TDa-4148,B0001Y,,,,,Dioscorea,alata,,,,yam,,,SLE,Bonth,7.53,-12.51,,,,9,,,,300,,,,,,,,,13;30,,18c15f18-24b3-4fee-b991-fd98caa26a6b,,http://my.iita.org/accession2/accession/TDa-4148,
10001000051,NGA039,TDa-1333,IF/89/036,,,,,Dioscorea,alata,,,,yam,,,GHA,,7.5332999,-2.0667,,,,303,19890101,,,300,,,,,,,,,13;30,,af9da269-d87b-4887-b58a-6d3a058a1def,,http://my.iita.org/accession2/accession/TDa-1333,
10001000051,NGA039,TDa-2851,IF/89/036,,,,,Dioscorea,alata,,,,yam,,,GHA,,7.5332999,-2.0667,,,,303,19890101,,,300,,,,,,,,,13;30,,3e20b189-3d0c-445d-bf50-8b75b350d0a5,,http://my.iita.org/accession2/accession/TDa-2851,
10001000051,NGA039,TDa-4141,M005Y,,,,,Dioscorea,alata,,,,yam,,,SLE,Shenge,7.54167,-12.37306,,,,46,,,,300,,,,,,,,,13;30,,bb2f103b-8e81-4f61-95cf-9dd8e28b95ba,,http://my.iita.org/accession2/accession/TDa-4141,
10001000051,NGA039,TDa-1330,IF/89/033,,,,,Dioscorea,alata,,,,yam,,,GHA,,7.5500002,-1.2,,,,152,19890101,,,300,,,,,,,,,13;30,,7f4d92b9-4d62-4e61-87fb-0ef7bd675668,,http://my.iita.org/accession2/accession/TDa-1330,
10001000051,NGA039,TDa-2849,IF/89/033,,,,,Dioscorea,alata,,,,yam,,,GHA,,7.5500002,-1.2,,,,152,19890101,,,300,,,,,,,,,13;30,,120ee6bb-ba1b-4144-b6af-e3a84d93905a,,http://my.iita.org/accession2/accession/TDa-2849,
10001000051,NGA039,TDa-4054,95-27,,,,,Dioscorea,alata,,,,yam,,,GHA,"ATEBUBU, TRIP",7.7554,-0.9808,,,,252,19950101,,,300,,,,,,,,,13;30,,5bece1de-1fb7-4550-9995-b4290eae563f,,http://my.iita.org/accession2/accession/TDa-4054,
10001000051,NGA039,TDa-4137,K008Y,,,,,Dioscorea,alata,,,,yam,,,SLE,Kenema,7.87667,-11.1875,,,,178,,,,300,,,,,,,,,13;30,,93d95209-cb7a-4370-814f-4cb2e9d290dc,,http://my.iita.org/accession2/accession/TDa-4137,
10001000051,NGA039,TDa-4138,K007Y,,,,,Dioscorea,alata,,,,yam,,,SLE,Kenema,7.87667,-11.1875,,,,178,,,,300,,,,,,,,,13;30,,1b2c00e2-aae6-465f-9634-904cbeada60b,,http://my.iita.org/accession2/accession/TDa-4138,
10001000051,NGA039,TDa-4144,K009Y,,,,,Dioscorea,alata,,,,yam,,,SLE,Hangha,7.94,-11.14,,,,82,,,,300,,,,,,,,,13;30,,1385bcd9-3dec-473c-8e20-f062a15c3779,,http://my.iita.org/accession2/accession/TDa-4144,
10001000051,NGA039,TDa-4042,,,,,,Dioscorea,alata,,,,yam,,,NGA,"KAMPANI ZONGO/AYA IGABI LGA, KDNA, STATE",8,-2,,,,508,,,,300,,,,,,,,,13;30,,b3bf1d32-f6fa-4762-a9fd-d694f43e5572,,http://my.iita.org/accession2/accession/TDa-4042,
10001000051,NGA039,TDa-4131,B019Y,,,,,Dioscorea,alata,,,,yam,,,SLE,Mandu,8,-2,,,,121,,,,300,,,,,,,,,13;30,,539c3d8f-dd80-494c-b85b-516904dc64e8,,http://my.iita.org/accession2/accession/TDa-4131,
10001000051,NGA039,TDa-3943,IN94R-084,,,,,Dioscorea,alata,,,,yam,,,BEN,ZOU,8.0200005,2.1700001,,,,200,,,,300,,,,,,,,,13;30,,97db8f51-0d3a-4524-8c0e-27b9f441da10,,http://my.iita.org/accession2/accession/TDa-3943,
10001000051,NGA039,TDa-3911,NG 95/010,,,,,Dioscorea,alata,,,,yam,,,NGA,OGBOMOSO,8.0299997,4.1300001,,,,4,19950101,,,300,,,,,,,,,13;30,,6bce8d54-70eb-4b5f-8826-230c5ebfe87d,,http://my.iita.org/accession2/accession/TDa-3911,
10001000051,NGA039,TDa-3913,NG 95/007,,,,,Dioscorea,alata,,,,yam,,,NGA,OGBOMOSO,8.0299997,4.1300001,,,,252,19950101,,,300,,,,,,,,,13;30,,53a92f37-b273-4938-a46b-9285af6c77f8,,http://my.iita.org/accession2/accession/TDa-3913,
10001000051,NGA039,TDa-3920,NG 95/010,,,,,Dioscorea,alata,,,,yam,,,NGA,,8.0299997,4.1300001,,,,4,19950101,,,300,,,,,,,,,13;30,,7cbde468-217c-4fb4-b5b0-cba9166ac257,,http://my.iita.org/accession2/accession/TDa-3920,
10001000051,NGA039,TDa-4140,M008Y,,,,,Dioscorea,alata,,,,yam,,,SLE,Mano,8.04,-12.1,,,,25,,,,300,,,,,,,,,13;30,,6b6846fe-ccb5-4b96-850e-11bfcc6c672e,,http://my.iita.org/accession2/accession/TDa-4140,
10001000051,NGA039,TDa-4125,M009Y,,,,,Dioscorea,alata,,,,yam,,,SLE,Makonde,8.13,-12.85,,,,,,,,300,,,,,,,,,13;30,,1e624254-4bf2-47cf-a394-df3381a43bda,,http://my.iita.org/accession2/accession/TDa-4125,
10001000051,NGA039,TDa-3919,,,,,,Dioscorea,alata,,,,yam,,,BEN,OGBOMOSO,8.1333337,4.2666667,,,,341,,,,300,,,,,,,,,13;30,,50b0c1eb-82a4-42eb-8229-789e5a447c9b,,http://my.iita.org/accession2/accession/TDa-3919,
10001000051,NGA039,TDa-3130,RB-89 - 13,,,,,Dioscorea,alata,,,,yam,,,BEN,,8.2,2.37,,,,252,19890101,,,300,,,,,,,,,13;30,,a9629dff-f839-4b90-9d26-c8f9a1d7858f,,http://my.iita.org/accession2/accession/TDa-3130,
10001000051,NGA039,TDa-4127,B011Y,,,,,Dioscorea,alata,,,,yam,,,SLE,Fulawahun,8.2451,-10.7124,,,,252,,,,300,,,,,,,,,13;30,,1b8cce9e-3789-45ac-b670-61433fd868bf,,http://my.iita.org/accession2/accession/TDa-4127,
10001000051,NGA039,TDa-4132,B020Y,,,,,Dioscorea,alata,,,,yam,,,SLE,Fulawahun,8.2451,-10.7124,,,,252,,,,300,,,,,,,,,13;30,,ac266c3c-a8d9-42ac-8215-755764bb629a,,http://my.iita.org/accession2/accession/TDa-4132,
10001000051,NGA039,TDa-4136,B003Y,,,,,Dioscorea,alata,,,,yam,,,SLE,Bumpe,8.35,-11.93,,,,252,,,,300,,,,,,,,,13;30,,2128bd11-047e-4a4c-af87-3e7dffb3cf54,,http://my.iita.org/accession2/accession/TDa-4136,
10001000051,NGA039,TDa-3900,IN94A-094,,,,,Dioscorea,alata,,,,yam,,,BEN,ZOU,8.4200001,1.92,,,,200,,,,300,,,,,,,,,13;30,,ab9193d1-f546-46bd-aeab-4eaa9c4ad3f7,,http://my.iita.org/accession2/accession/TDa-3900,
10001000051,NGA039,TDa-4146,K002Y,,,,,Dioscorea,alata,,,,yam,,,SLE,Blama,8.4371,-11.4547,,,,118,,,,300,,,,,,,,,13;30,,7661f39d-b73d-40f6-9c05-068ec57f65dc,,http://my.iita.org/accession2/accession/TDa-4146,
10001000051,NGA039,TDa-4043,,,,,,Dioscorea,alata,,,,yam,,,NGA,"LABAR, IGABI LGA, KADUNA STATE",8.48333,8.51667,,,,152,,,,300,,,,,,,,,13;30,,29f44022-ef61-4ad9-af31-05c146a07612,,http://my.iita.org/accession2/accession/TDa-4043,
10001000051,NGA039,TDa-4128,B012Y,,,,,Dioscorea,alata,,,,yam,,,SLE,Gumahun,8.5,-11.5,,,,303,,,,300,,,,,,,,,13;30,,2951eefe-702a-4e8c-98d2-c5f94e835feb,,http://my.iita.org/accession2/accession/TDa-4128,
10001000051,NGA039,TDa-4135,M002Y,,,,,Dioscorea,alata,,,,yam,,,SLE,Sembehun Nestucker,8.5,-11.5,,,,119,,,,300,,,,,,,,,13;30,,bfcb0a39-2def-44e6-ad9b-474267262526,,http://my.iita.org/accession2/accession/TDa-4135,
10001000051,NGA039,TDa-4142,B007Y,,,,,Dioscorea,alata,,,,yam,,,SLE,Sembehun 17,8.5,-11.5,,,,119,,,,300,,,,,,,,,13;30,,808c7cc1-d9a7-43f4-9d77-33a7db0ad425,,http://my.iita.org/accession2/accession/TDa-4142,
10001000051,NGA039,TDa-4145,B009Y,,,,,Dioscorea,alata,,,,yam,,,SLE,Bendu,8.5,-11.5,,,,256,,,,300,,,,,,,,,13;30,,1e9d0c94-82ca-4954-bc55-83bf16f87aa5,,http://my.iita.org/accession2/accession/TDa-4145,
10001000051,NGA039,TDa-3945,IN96A-167,,,,,Dioscorea,alata,,,,yam,,,BEN,BORGOU,8.8800001,2.5799999,,,,465,,,,300,,,,,,,,,13;30,,311a6304-0538-431c-a1bd-160764c419c7,,http://my.iita.org/accession2/accession/TDa-3945,
10001000051,NGA039,TDa-3903,IN94A-108,,,,,Dioscorea,alata,,,,yam,,,BEN,ATACORA,8.9799995,1.67,,,,444,,,,300,,,,,,,,,13;30,,e82e6a12-f7b0-4ac5-a511-09fee276cd48,,http://my.iita.org/accession2/accession/TDa-3903,
10001000051,NGA039,TDa-3917,IN94A-109,,,,,Dioscorea,alata,,,,yam,,,BEN,ATACORA,8.9799995,1.67,,,,444,,,,300,,,,,,,,,13;30,,3150ea80-d11b-462f-907a-0efdf0cd4a91,,http://my.iita.org/accession2/accession/TDa-3917,
10001000051,NGA039,TDa-3794,IN94A-062,,,,,Dioscorea,alata,,,,yam,,,BEN,GOKANNA,9.0200005,2.5699999,,,,303,,,,300,,,,,,,,,13;30,,33115447-3a1c-4687-a72b-d890fe57aa8a,,http://my.iita.org/accession2/accession/TDa-3794,
10001000051,NGA039,TDa-3898,IN94A-61,,,,,Dioscorea,alata,,,,yam,,,BEN,BORGOU,9.0200005,2.5699999,,,,465,,,,300,,,,,,,,,13;30,,20d040be-4b16-43a7-8f8e-3c7245c73d53,,http://my.iita.org/accession2/accession/TDa-3898,
10001000051,NGA039,TDa-3922,IN94A-063,,,,,Dioscorea,alata,,,,yam,,,BEN,BORGOU,9.0200005,2.5699999,,,,465,,,,300,,,,,,,,,13;30,,a2cc4dba-19e6-4371-a202-a4250f74405b,,http://my.iita.org/accession2/accession/TDa-3922,
10001000051,NGA039,TDa-4044,IN94A-27,,,,,Dioscorea,alata,,,,yam,,,BEN,"GABI, LAPAI LGA, NIGER STATE",9.1000004,6.6333337,,,,,,,,300,,,,,,,,,13;30,,93e97dcd-b275-40a4-ad32-1f9d147685fb,,http://my.iita.org/accession2/accession/TDa-4044,
10001000051,NGA039,TDa-4045,IN94A-46,,,,,Dioscorea,alata,,,,yam,,,BEN,"GABI, LAPAI LGA, NIGER STATE",9.1000004,6.6333337,,,,,,,,300,,,,,,,,,13;30,,41f98ad4-bf8c-4c3a-8f9f-167756dda79c,,http://my.iita.org/accession2/accession/TDa-4045,
10001000051,NGA039,TDa-1327,GHA/89/071,,,,,Dioscorea,alata,,,,yam,,,GHA,,9.1332998,-1.55,,,,,19890101,,,300,,,,,,,,,13;30,,87999e23-a5e3-442b-890e-4d72223a6325,,http://my.iita.org/accession2/accession/TDa-1327,
10001000051,NGA039,TDa-2841,GHA/89/071,,,,,Dioscorea,alata,,,,yam,,,GHA,,9.1332998,-1.55,,,,-2,19890101,,,300,,,,,,,,,13;30,,11bea4a5-fc6d-4932-a4b1-6a5ea02e2326,,http://my.iita.org/accession2/accession/TDa-2841,
10001000051,NGA039,TDa-1328,GHA/89/073,,,,,Dioscorea,alata,,,,yam,,,GHA,,9.1999998,-2.4833,,,,309,19890101,,,300,,,,,,,,,13;30,,3704dbd6-023e-42a5-92fd-c933e8deaf00,,http://my.iita.org/accession2/accession/TDa-1328,
10001000051,NGA039,TDa-2835,GHA/89/073,,,,,Dioscorea,alata,,,,yam,,,GHA,,9.1999998,-2.4833,,,,309,,,,300,,,,,,,,,13;30,,873bb262-c9a1-4078-95ad-1ee2572b5953,,http://my.iita.org/accession2/accession/TDa-2835,
10001000051,NGA039,TDa-4047,IN94A-62,,,,,Dioscorea,alata,,,,yam,,,BEN,"NDABARISHI, KATCHA LGA, NIGER STATE",9.28333,5.05,,,,,,,,300,,,,,,,,,13;30,,0ab090a1-9582-4e9d-95ec-4b11e7f92431,,http://my.iita.org/accession2/accession/TDa-4047,
10001000051,NGA039,TDa-4046,IN94A-57,,,,,Dioscorea,alata,,,,yam,,,BEN,"KATAEREGI, KATCHA LGA, NIGER STATE",9.3371178,6.2999997,,,,252,,,,300,,,,,,,,,13;30,,3eeca81f-bba9-4252-b599-1ba2be7a8bdf,,http://my.iita.org/accession2/accession/TDa-4046,
10001000051,NGA039,TDa-4126,M010Y,,,,,Dioscorea,alata,,,,yam,,,SLE,Kargahun,9.35,6.3,,,,151,,,,300,,,,,,,,,13;30,,3f233dba-83ad-4bbd-9b83-70274342c738,,http://my.iita.org/accession2/accession/TDa-4126,
10001000051,NGA039,TDa-4147,K014Y,,,,,Dioscorea,alata,,,,yam,,,SLE,Serabii,9.5,2.25,,,,,,,,300,,,,,,,,,13;30,,0ac7c07d-a943-421d-b423-14a713a37ca4,,http://my.iita.org/accession2/accession/TDa-4147,
10001000051,NGA039,TDa-4197,2 0,,,,,Dioscorea,alata,,,,yam,,,,Soyime,9.5,2.25,,,,,,,,300,,,,,,,,,13;30,,f9e0ee1f-f0e0-46fe-8d83-8bf7e5ae079a,,http://my.iita.org/accession2/accession/TDa-4197,
10001000051,NGA039,TDa-3784,IN94R-118,,,,,Dioscorea,alata,,,,yam,,,BEN,SEROU,9.6700001,1.72,,,,379,,,,300,,,,,,,,,13;30,,6876b2ef-497d-491e-a369-6b7d565a3e76,,http://my.iita.org/accession2/accession/TDa-3784,
10001000051,NGA039,TDa-3916,IN94A-057,,,,,Dioscorea,alata,,,,yam,,,BEN,BORGOU,9.6700001,1.67,,,,465,,,,300,,,,,,,,,13;30,,5d6a0350-47cc-440b-8397-af2eeff2be72,,http://my.iita.org/accession2/accession/TDa-3916,
10001000051,NGA039,TDa-3937,IN94A-116,,,,,Dioscorea,alata,,,,yam,,,BEN,ATACORA,9.6700001,1.72,,,,444,,,,300,,,,,,,,,13;30,,d0da0dac-01a6-4460-9f2e-df285f4d9685,,http://my.iita.org/accession2/accession/TDa-3937,
10001000051,NGA039,TDa-4064,93-76,,,,,Dioscorea,alata,,,,yam,,,NGA,TRIP - JOS,9.733333333,8.833333333,,,,252,19930101,,,300,,,,,,,,,13;30,,03b36765-6331-4cde-b006-1125ddeac662,,http://my.iita.org/accession2/accession/TDa-4064,
10001000051,NGA039,TDa-3902,IN94A-153,,,,,Dioscorea,alata,,,,yam,,,BEN,BORGOU,9.75,2.25,,,,465,,,,300,,,,,,,,,13;30,,915d25a4-2edf-4594-b4e5-748746d6b6bc,,http://my.iita.org/accession2/accession/TDa-3902,
10001000051,NGA039,TDa-3901,IN94A-027,,,,,Dioscorea,alata,,,,yam,,,BEN,BORGOU,9.8500004,2.7,,,,465,,,,300,,,,,,,,,13;30,,8872ba3e-b66e-4f54-b109-f8f0bea9f7d2,,http://my.iita.org/accession2/accession/TDa-3901,
10001000051,NGA039,TDa-3914,IN94A-037,,,,,Dioscorea,alata,,,,yam,,,NGA,BORGOU,9.8500004,2.7,,,,,19940101,,,300,,,,,,,,,13;30,,9609c5bf-81fa-457c-b2e1-81e925a61f65,,http://my.iita.org/accession2/accession/TDa-3914,
10001000051,NGA039,TDa-3927,IN94A-046,,,,,Dioscorea,alata,,,,yam,,,BEN,BORGOU,9.8500004,2.7,,,,465,,,,300,,,,,,,,,13;30,,2a0adf9b-d9d1-4e68-9cba-0ac5ea702c6d,,http://my.iita.org/accession2/accession/TDa-3927,
10001000051,NGA039,TDa-3789,IN94A-006,,,,,Dioscorea,alata,,,,yam,,,BEN,BIRO,9.9200001,2.9300001,,,,508,,,,300,,,,,,,,,13;30,,af67b3b0-d996-4b3c-be7b-b1eddd2437d0,,http://my.iita.org/accession2/accession/TDa-3789,
10001000051,NGA039,TDa-4051,95-164,,,,,Dioscorea,alata,,,,yam,,,NGA,"TRIP- MBIRI, DELTA STATE",10,8,,,,252,19950101,,,300,,,,,,,,,13;30,,b4766b37-ed48-4924-8c13-d6609f1a34aa,,http://my.iita.org/accession2/accession/TDa-4051,
10001000051,NGA039,TDa-4056,95-75,,,,,Dioscorea,alata,,,,yam,,,NGA,TRIP - OSHOKOSHOKO VIA LOKOJA,10,8,,,,252,19950101,,,300,,,,,,,,,13;30,,d89c048a-5cd8-4012-939d-4f7a033ce127,,http://my.iita.org/accession2/accession/TDa-4056,
10001000051,NGA039,TDa-4059,,,,,,Dioscorea,alata,,,,yam,,,NGA,"TRIP - MBIRI, DELTA STAT",10,8,,,,252,,,,300,,,,,,,,,13;30,,387b423b-d59b-44e2-b658-e1b76ca085d1,,http://my.iita.org/accession2/accession/TDa-4059,
10001000051,NGA039,TDa-4114,BF-98-23,,,,,Dioscorea,alata,,,,yam,,,BFA,Bouara,10,8,,,,,,,,300,,,,,,,,,13;30,,d4c5a1d7-04a2-4b4b-831b-33e3f93ba9c9,,http://my.iita.org/accession2/accession/TDa-4114,
10001000051,NGA039,TDa-4116,BF-98-28,,,,,Dioscorea,alata,,,,yam,,,BFA,Bouara,10,8,,,,,,,,300,,,,,,,,,13;30,,33cc630e-fe03-4c71-b380-a5074852e883,,http://my.iita.org/accession2/accession/TDa-4116,
10001000051,NGA039,TDa-3929,IN94A-013,,,,,Dioscorea,alata,,,,yam,,,BEN,BORGOU,10.15,3.23,,,,465,,,,300,,,,,,,,,13;30,,cccd0922-4fe7-4727-b8a2-7007669a94fb,,http://my.iita.org/accession2/accession/TDa-3929,
10001000051,NGA039,TDa-3941,,,,,,Dioscorea,alata,,,,yam,,,BEN,BORGOU,10.4833,1.55,,,,465,,,,300,,,,,,,,,13;30,,ec646a87-35de-4261-8b21-b057f0cccf22,,http://my.iita.org/accession2/accession/TDa-3941,
10001000051,NGA039,TDa-3938,,,,,,Dioscorea,alata,,,,yam,,,BEN,ATACORA,10.7499995,1.6666665,,,,444,,,,300,,,,,,,,,13;30,,1cd49edb-7f0a-4e31-982d-485e3530b3f6,,http://my.iita.org/accession2/accession/TDa-3938,
10001000051,NGA039,TDa-3939,,,,,,Dioscorea,alata,,,,yam,,,BEN,ATACORA,10.7499995,1.6666665,,,,444,,,,300,,,,,,,,,13;30,,d7d88af3-e1d1-4dac-84ca-9023b81b24b0,,http://my.iita.org/accession2/accession/TDa-3939,
10001000051,NGA039,TDa-3942,,,,,,Dioscorea,alata,,,,yam,,,BEN,ATACORA,10.7499995,1.6666665,,,,444,,,,300,,,,,,,,,13;30,,7879eaa9-4507-4816-87fb-667c405f07e0,,http://my.iita.org/accession2/accession/TDa-3942,
10001000051,NGA039,TDa-4115,BF-98-25,,,,,Dioscorea,alata,,,,yam,,,BFA,Ti,11.05,-2.45,,,,301,,,,300,,,,,,,,,13;30,,eda7dd37-9f30-4c7b-bfb6-8197203846af,,http://my.iita.org/accession2/accession/TDa-4115,
10001000051,NGA039,TDa-4112,BF-98-04,,,,,Dioscorea,alata,,,,yam,,,BFA,Sogolo,11.75,2.1666667,,,,305,,,,300,,,,,,,,,13;30,,54ab4571-4676-4a11-9597-298bf5588287,,http://my.iita.org/accession2/accession/TDa-4112,
