CFFcropid,INSTCODE,ACCENUMB,COLLNUMB,COLLCODE,COLLNAME,COLLINSTADDRESS,COLLMISSID,GENUS,SPECIES,SPAUTHOR,SUBTAXA,SUBTAUTHOR,CROPNAME,ACCENAME,ACQDATE,ORIGCTY,COLLSITE,lat,lon,COORDUNCERT,COORDDATUM,GEOREFMETH,ELEVATION,COLLDATE,BREDCODE,BREDNAME,SAMPSTAT,ANCEST,COLLSRC,DONORCODE,DONORNAME,DONORNUMB,OTHERNUMB,DUPLSITE,DUPLINSTNAME,STORAGE,MLSSTAT,UUID,HISTORIC,ACCEURL,REMARKS
10001000059,USA042,HART 54,200,,,,,Artocarpus,altilis,(Parkinson) Fosberg,,,breadfruit,MAIRE,19910409,PYF,Moorea,-17.5331897,-149.8363421,,,,,,,,999,,99,,,,200;USA126:N91-32;MAIRE,,,99,,0910e065-7b09-4cea-b444-79fb5f91c8a4,,,
10001000059,USA042,HART 16,207,,,,,Artocarpus,altilis,(Parkinson) Fosberg,,,breadfruit,PUERO,19870428,PYF,"Papetoai, Moorea",-17.49332,-149.8723,,,,,19870408,,,500,,50,,,,207;PUERO,,,99,,b573887b-47cc-4797-a0c7-29b964848670,,,
10001000059,USA042,HART 18,204,,,,,Artocarpus,altilis,(Parkinson) Fosberg,,,breadfruit,PUA'A,19870428,PYF,"Papetoai, Moorea",-17.49332,-149.8723,,,,,19870407,,,500,,50,,,,204;PUA'A,,,20,,05038dad-4e7a-464c-b062-e4dee78135cf,,,
10001000059,USA042,HART 44,200,,,,,Artocarpus,altilis,(Parkinson) Fosberg,,,breadfruit,MAIRE,19880922,PYF,"Papetoai, Moorea",-17.49332,-149.8723,,,,,19870406,,,500,,50,,,,200;MAIRE,,,20,,1601ff5c-4f12-4924-81f7-6e7145471905,,,
10001000059,USA042,HART 29,268,,,,,Artocarpus,altilis,(Parkinson) Fosberg,,,breadfruit,APU,19880714,PYF,"Fetuna, Raiatea",-16.90379,-151.434494,,,,,19870507,,,500,,50,,,,268;APU,,,99,,31b9ae03-b7dd-4957-88a3-89bf1f170dc1,,,
10001000059,USA042,HART 34,272,,,,,Artocarpus,altilis,(Parkinson) Fosberg,,,breadfruit,APUAPUA,19880811,PYF,"Fetuna, Raiatea",-16.90379,-151.434494,,,,,19870507,,,500,,50,,,,272;APUAPUA,,,99,,bed8b653-5ad5-42d9-8a20-94c6d627154f,,,
10001000059,USA042,HART 42,264,,,,,Artocarpus,altilis,(Parkinson) Fosberg,,,breadfruit,IOIO,19880909,PYF,"Delord's, Raiatea",-16.8332802,-151.4197108,,,,,19870504,,,500,,50,,,,264;IOIO,,,20,,7ab16900-06c2-4780-8f5d-ddcd8dc31ef0,,,
10001000059,USA042,HART 45,258,,,,,Artocarpus,altilis,(Parkinson) Fosberg,,,breadfruit,TUUTOU,19880922,PYF,"Delord's, Raiatea",-16.8332802,-151.4197108,,,,,19870504,,,500,,50,,,,258;TAATAATOETOE;TUUTOU,,,99,,da5e330c-3b30-4875-ae12-0d6a8ad1d224,,,
10001000059,USA042,HART 30,256,,,,,Artocarpus,altilis,(Parkinson) Fosberg,,,breadfruit,HUERO,19880714,PYF,"Faaro, Raiatea",-16.818283,-151.41881,,,,,19870429,,,500,,50,,,,256;HUERO,,,30,,5a601572-8e80-4b79-bf3e-9a20bd980891,,,
10001000059,USA042,HART 33,241,,,,,Artocarpus,altilis,(Parkinson) Fosberg,,,breadfruit,PATARA,19880811,PYF,Tahaa,-16.6822227,-151.4700016,,,,,,,,500,,50,,,,241;PATARA,,,20,,d90170fc-b89e-48a8-a088-d5e71a09aa55,,,
10001000059,USA042,HART 32,236,,,,,Artocarpus,altilis,(Parkinson) Fosberg,,,breadfruit,HAMOA,19880811,PYF,"Tiva, Tahaa",-16.64332,-151.53623,,,,,19870423,,,500,,50,,,,236;HAMOA,,,20,,7fcc8912-03b9-47b6-a5c3-00d78a74c4ff,,,
10001000059,USA042,HART 40,251,,,,,Artocarpus,altilis,(Parkinson) Fosberg,,,breadfruit,TEAHIMATOA,19880909,PYF,"Tiva, Tahaa",-16.64332,-151.53623,,,,,19870429,,,500,,50,,,,251;TEAHIMATOA,,,20,,a4b640e0-523f-431d-a0ed-c118764117ac,,,
10001000059,USA042,NTBG 900244 001,,,,,,Artocarpus,altilis,(Parkinson) Fosberg,,,breadfruit,PUA,19910710,PYF,,-16.63333333,-151.5333333,,,,,19870430,,,300,,,,,,PUA;USA126:NTBG 900244 001,,,99,,559c2dee-8bc0-45b4-bf57-7513fb7d734b,,,
10001000059,USA042,NTBG 900228 001,Ragone 13,,,,,Artocarpus,altilis,(Parkinson) Fosberg,,,breadfruit,Unidentified 02,19900327,WSM,Savaii,-13.5,-172.65,,,,4,19850805,,,300,,,,,,Unidentified 02;Ragone 13;USA126:NTBG 900228 001,,,99,,dea62204-2c56-4609-b6a6-3146ff52eb17,,,
10001000059,USA042,HART 50,426,,,,,Artocarpus,altilis,(Parkinson) Fosberg,,,breadfruit,KUKUMU TASI,19910409,SLB,Upolu,-9.606699,160.121562,,,,,19910409,,,999,,99,,,,426;USA126:N91-28;KUKUMU TASI,,,99,,89443070-ada0-42c0-8356-76f91d0ccd7f,,,
10001000059,USA042,NTBG 890181 001,Ragone 61,,,,,Artocarpus,hybr.,,,,breadfruit,Ulu afa,19900327,TKL,Fakaofo: Fale Village,-9.36666667,-171.2333333,,,,0,19851109,,,300,Most likely Artocarpus altilis x A. mariannensis from collection area.,,,,,Ulu afa;Ragone 61;USA126:NTBG 890181 001,,,99,,73b7f345-f7cc-46f8-bd38-33d10206be33,,,
10001000059,USA042,NTBG 890181 002,Ragone 61,,,,,Artocarpus,hybr.,,,,breadfruit,Ulu afa,19900327,TKL,Fakaofo: Fale Village,-9.36666667,-171.2333333,,,,0,19851109,,,300,Most likely Artocarpus altilis x A. mariannensis from collection area.,,,,,Ulu afa;Ragone 61;USA126:NTBG 890181 002,,,99,,8d2c7e0b-1676-45db-88e3-3aa038955d54,,,
10001000059,USA042,NTBG 890182 001,Ragone 65,,,,,Artocarpus,hybr.,,,,breadfruit,Ulu elise,19890209,TKL,Fakaofo: Fale Village,-9.36666667,-171.2333333,,,,0,19851109,,,300,Most likely Artocarpus altilis x A. mariannensis from collection area.,,,,,Ulu elise;Ragone 65;USA126:NTBG 890182 001,,,99,,462460db-85f9-4c8c-a985-29d917b684d4,,,
10001000059,USA042,NTBG 890182 002,Ragone 65,,,,,Artocarpus,hybr.,,,,breadfruit,Ulu elise,19900327,TKL,Fakaofo: Fale Village,-9.36666667,-171.2333333,,,,0,19851109,,,300,Most likely Artocarpus altilis x A. mariannensis from collection area.,,,,,Ulu elise;Ragone 65;USA126:NTBG 890182 002,,,99,,da2a633a-6f37-4c63-93da-c38d821d37b3,,,
10001000059,USA042,NTBG 890170 002,Ragone 43,,,,,Artocarpus,hybr.,,,,breadfruit,Ulu hamoa,19900327,TKL,Nukunonu: Nukunonu Village,-9.16666667,-171.8833333,,,,0,19851105,,,300,Most likely Artocarpus altilis x A. mariannensis from collection area.,,,,,Ulu hamoa;Ragone 43;USA126:NTBG 890170 002,,,99,,55068f74-549e-4f3d-8e8a-26da2468dfa6,,,
10001000059,USA042,NTBG 890171 002,Ragone 44,,,,,Artocarpus,hybr.,,,,breadfruit,Ulu afa,19900327,TKL,Nukunonu: Nukunonu Village,-9.16666667,-171.8833333,,,,0,19851105,,,300,Most likely Artocarpus altilis x A. mariannensis from collection area.,,,,,Ulu afa;Ragone 44;USA126:NTBG 890171 002,,,99,,62f5d3fc-928a-4fb5-a94c-b0d9d6a518bb,,,
10001000059,USA042,NTBG 890173 002,Ragone 46,,,,,Artocarpus,hybr.,,,,breadfruit,Ulu afa elise,19900327,TKL,Nukunonu: Nukunonu Village,-9.16666667,-171.8833333,,,,0,19851105,,,300,Most likely Artocarpus altilis x A. mariannensis from collection area.,,,,,Ulu afa elise;Ragone 46;USA126:NTBG 890173 002,,,99,,39b84419-3a51-4275-bea1-0f3d19536204,,,
10001000059,USA042,NTBG 890174 001,Ragone 48,,,,,Artocarpus,hybr.,,,,breadfruit,Ulu afa,19890209,TKL,Nukunonu: Nukunonu Village,-9.16666667,-171.8833333,,,,0,19851105,,,300,Most likely Artocarpus altilis x A. mariannensis from collection area.,,,,,Ulu afa;Ragone 48;USA126:NTBG 890174 001,,,99,,597762f9-3764-4119-8cfe-173db90d744c,,,
10001000059,USA042,NTBG 890175 001,Ragone 49,,,,,Artocarpus,hybr.,,,,breadfruit,Ulu afa hamoa,19890209,TKL,Nukunonu: Nukunonu Village,-9.16666667,-171.8833333,,,,0,19851105,,,300,Most likely Artocarpus altilis x A. mariannensis from collection area.,,,,,Ulu afa hamoa;Ragone 49;USA126:NTBG 890175 001,,,99,,c9929d35-fad9-4be4-b3c6-9eb66c901b4a,,,
10001000059,USA042,NTBG 890177 002,Ragone 53,,,,,Artocarpus,hybr.,,,,breadfruit,Ulu afa,19900327,TKL,Nukunonu: Nukunonu Village,-9.16666667,-171.8833333,,,,0,19851105,,,300,Most likely Artocarpus altilis x A. mariannensis from collection area.,,,,,Ulu afa;Ragone 53;USA126:NTBG 890177 002,,,99,,5b9d1946-c9a1-4a55-98e0-b3484b18f26c,,,
10001000059,USA042,NTBG 890179 001,Ragone 58,,,,,Artocarpus,hybr.,,,,breadfruit,Ulu afa,19890209,TKL,Nukunonu: Nukunonu Village,-9.16666667,-171.8833333,,,,0,19851105,,,300,Most likely Artocarpus altilis x A. mariannensis from collection area.,,,,,Ulu afa;Ragone 58;USA126:NTBG 890179 001,,,99,,e341d559-5bf9-4880-a4da-20f392bbef88,,,
10001000059,USA042,NTBG 890180 001,Ragone 59,,,,,Artocarpus,hybr.,,,,breadfruit,Ulu hamoa,19890209,TKL,Nukunonu: Nukunonu Village,-9.16666667,-171.8833333,,,,0,19851107,,,300,Most likely Artocarpus altilis x A. mariannensis from collection area.,,,,,Ulu hamoa;Ragone 59;USA126:NTBG 890180 001,,,99,,a984c770-6c9e-47c8-ae09-928a6bce4011,,,
10001000059,USA042,NTBG 890453 001,Ragone 57,,,,,Artocarpus,hybr.,,,,breadfruit,Ulu afa,19890727,TKL,Nukunonu: Nukunonu Village,-9.16666667,-171.8833333,,,,0,19851105,,,300,Most likely Artocarpus altilis x A. mariannensis from collection area.,,,,,Ulu afa;Ragone 57;USA126:NTBG 890453 001,,,99,,171974db-f794-4ac7-b733-af01eddddf49,,,
10001000059,USA042,NTBG 900230 001,Ragone 54,,,,,Artocarpus,hybr.,,,,breadfruit,Ulu afa hamoa,19900327,TKL,Nukunonu: Nukunonu Village,-9.16666667,-171.8833333,,,,0,19851105,,,300,Most likely Artocarpus altilis x A. mariannensis from collection area.,,,,,Ulu afa hamoa;Ragone 54;USA126:NTBG 900230 001,,,99,,dbd9ce5f-2db0-4a7f-9aac-7d5735a815eb,,,
10001000059,USA042,HART 23,216,,,,,Artocarpus,altilis,(Parkinson) Fosberg,,,breadfruit,MEI PUOU,19870428,PYF,"Taiohae, Nuku Hiva",-8.9166661,-140.0916703,,,,,19870413,,,500,,50,,,,216;MEI PUOU,,,20,,0512a099-d85d-4cb9-b7a7-13c713beaa03,,,
10001000059,USA042,HART 11,222,,,,,Artocarpus,altilis,(Parkinson) Fosberg,,,breadfruit,MEI MAOI,19870428,PYF,Nuku Hiva,-8.8898143,-140.1000837,,,,,,,,500,,50,,,,222;MEI MAOI,,,99,,334da97c-7396-431b-9aa6-35351f8dcdd5,,,
10001000059,USA042,HART 21,221,,,,,Artocarpus,altilis,(Parkinson) Fosberg,,,breadfruit,MEI KAKANO,19870428,PYF,"Hatiheu, Nuku Hiva",-8.82892,-140.08104,,,,,19870414,,,500,,50,,,,221;MEI KAKANO,,,20,,aff16052-11ce-410f-a3db-ae1b813e4af0,,,
10001000059,USA042,HART 28,231,,,,,Artocarpus,altilis,(Parkinson) Fosberg,,,breadfruit,MEI KOPUMOKU,19880714,PYF,"A'akapa, Nuku Hiva",-8.82024,-140.13052,,,,,19870423,,,500,,50,,,,231;MEI KOPUMOKU,,,20,,e3acd8ed-a0b1-4c03-bfc8-4ffe0b2a3aef,,,
10001000059,USA042,NTBG 810289 002,Hoyer sn,,,,,Artocarpus,altilis,(Parkinson) Fosberg,,,breadfruit,Yellow,19860101,SYC,"Victoria, Island of Mahe",-4.61666667,55.45,,,,,19850506,,,300,,,,,,Yellow;Hoyer sn;USA126:NTBG 810289 002,,,99,,798cdc4b-b7b3-4dc0-a28e-bf6e0768cc52,,,
10001000059,USA042,PI 560974,,,,,,Artocarpus,camansi,Blanco,,,breadfruit,Breadnut,19910826,MYS,"Tenom Station, Sabah",5.13333333,115.9166667,,,,,19900806,,,300,,20,,,KSZ-35,KSZ-35;USA126:HART 63;USA126:N90-148;Breadnut;RS 0790,,,20,,bf1abdfb-fda8-431f-a035-767fc269086e,,,
10001000059,USA042,PI 560978,,,,,,Artocarpus,odoratissimus,Blanco,,,breadfruit,Terap,19910826,MYS,"Small private holding near Agricultural Research Station, Tenom, Sabah",5.13333333,115.9166667,,,,,19900806,,,100,,10,,,KSZ-31,KSZ-31;USA126:HART 62;USA126:N90-147;Terap;RS 0790,,,20,,f16d3731-90ee-4059-bce8-1d4c7eff5840,,,
10001000059,USA042,HART 58,,,,,,Artocarpus,rigidus,Blume,,,breadfruit,N89-19,19900709,MYS,,5.409803,116.783474,,,,,19900709,,,100,,10,,,,USA126:N89-19,,,20,,a1afb536-f466-476a-aefc-87520990e0ca,,,
10001000059,USA042,HART 59,,,,,,Artocarpus,spp.,,,,breadfruit,N90-4,19900106,MYS,,5.409803,116.783474,,,,,19900106,,,100,,10,,,,USA126:N90-4,,,20,,eecf64cd-0ca3-4f98-864e-0e3ef3705c08,,,
10001000059,USA042,PI 560976,,,,,,Artocarpus,odoratissimus,Blanco,,,breadfruit,Terap,19910826,MYS,"Fruit stand, Tambunan.",5.63333333,116.3833333,,,,,19900804,,,100,,10,,,KSZ-13,KSZ-13;USA126:HART 64;USA126:N90-152;Terap;RS 0790,,,10;99,,0d22b35e-8724-4c5f-8e4b-292f33e9621d,,,
10001000059,USA042,PI 560975,,,,,,Artocarpus,odoratissimus,Blanco,,,breadfruit,Terap,19910826,MYS,"Market, Kota Kinabalu, Philippine market",5.96666667,116.0666667,,,,,19900730,,,100,,10,,,KSZ-2,KSZ-2;USA126:HART 61;USA126:N90-134;Terap;RS 0790,,,10;99,,4739764e-ee5b-4e86-b851-126732bfa897,,,
10001000059,USA042,HART 49,373,,,,,Artocarpus,altilis,(Parkinson) Fosberg,,,breadfruit,MEIN POHNSAKAR,19910409,FSM,,6.862068,158.258382,,,,,19910409,,,999,,99,,,,373;USA126:N91-27;MEIN POHNSAKAR;RMM 0687,,,99,,ade753aa-202d-4d13-a3a6-8c1d026e3ace,,,
10001000059,USA042,HART 52,365,,,,,Artocarpus,altilis,(Parkinson) Fosberg,,,breadfruit,LIPET,19910409,FSM,,6.867367,158.269051,,,,,19910409,,,999,,99,,,,365;USA126:N91-30;LIPET;RMM 0687,,,99,,22ef0b35-0dde-4e75-abc7-5369c40ac03e,,,
10001000059,USA042,HART 53,387,,,,,Artocarpus,altilis,(Parkinson) Fosberg,,,breadfruit,NAHNMWAL,19910409,FSM,,6.867367,158.269051,,,,,19910409,,,999,,99,,,,387;USA126:N91-31;NAHNMWAL;RMM 0687,,,99,,5190eb92-d280-4b2f-83e9-db69de8022c4,,,
10001000059,USA042,HART 35,286,,,,,Artocarpus,altilis,(Parkinson) Fosberg,,,breadfruit,MERIAUR,19880811,PLW,"Island of Koror, Belau (Palau Islands)",7.34194,134.47917,,,,,19870616,,,500,,50,,,,286;MERIAUR;RMM 0687,,,99,,f766246c-4a8c-4dc5-b4e6-8b70a0602c10,,,
10001000059,USA042,HART 51,326,,,,,Artocarpus,altilis,(Parkinson) Fosberg,,,breadfruit,MEI CHON,19910409,FSM,Moen (also known as Weno),7.441454,151.8550873,,,,,,,,999,,99,,,,326;USA126:N91-29;MEI CHON;RMM 0687,,,20,,372444cc-129b-4252-9e07-9ffee98ce013,,,
10001000059,USA042,HART 37,289,,,,,Artocarpus,altilis,(Parkinson) Fosberg,,,breadfruit,EBECHAB,19880811,FSM,"Island of Babeldaob (Babelthuap), Belau (Palau Islands).",7.494871,134.566018,,,,,19870617,,,500,,50,,,,289;EBECHAB;RMM 0687,,,20,,fe9335fd-ec24-4752-bd11-8b702e8ec038,,,
10001000059,USA042,HART 46,290,,,,,Artocarpus,altilis,(Parkinson) Fosberg,,,breadfruit,MIDOLAB,19880922,PLW,"Island of Babeldaob (Babelthuap), Belau (Palau Islands)",7.4999995,134.6000061,,,,,19870620,,,500,,50,,,,290;MIDOLAB;RMM 0687,,,20,,e878231b-1281-4ca9-8daa-68790c8527f0,,,
10001000059,USA042,HART 38,311,,,,,Artocarpus,altilis,(Parkinson) Fosberg,,,breadfruit,LEMAE,19880811,MNP,Asteo,15.2022782,145.7623238,,,,,19870713,,,500,,50,,,,311;LEMAE;RMM 0687,,,20,,e2458a7f-b29e-48b3-914d-8ccd9056869c,,,
